[{"OBJECT_NAME":"CORVUS BC4","OBJECT_ID":"2018-099K","EPOCH":"2026-03-09T15:49:18.108768","MEAN_MOTION":15.1161571,"ECCENTRICITY":0.00080458,"INCLINATION":97.4206,"RA_OF_ASC_NODE":114.5457,"ARG_OF_PERICENTER":356.5821,"MEAN_ANOMALY":3.5354,"EPHEMERIS_TYPE":0,"CLASSIFICATION_TYPE":"U","NORAD_CAT_ID":43767,"ELEMENT_SET_NO":999,"REV_AT_EPOCH":39736,"BSTAR":0.00033979895,"MEAN_MOTION_DOT":5.714e-5,"MEAN_MOTION_DDOT":0},{"OBJECT_NAME":"STARLINK-3395","OBJECT_ID":"2022-005AC","EPOCH":"2026-03-09T22:40:21.427680","MEAN_MOTION":15.08835564,"ECCENTRICITY":0.00012629,"INCLINATION":53.2174,"RA_OF_ASC_NODE":297.9767,"ARG_OF_PERICENTER":81.3781,"MEAN_ANOMALY":278.7354,"EPHEMERIS_TYPE":0,"CLASSIFICATION_TYPE":"U","NORAD_CAT_ID":51130,"ELEMENT_SET_NO":999,"REV_AT_EPOCH":22876,"BSTAR":2.8192551e-5,"MEAN_MOTION_DOT":1.61e-6,"MEAN_MOTION_DDOT":0}]
